[{"OBJECT_NAME":"COSMOS 2361","OBJECT_ID":"1998-076A","EPOCH":"2026-03-14T13:26:46.529664","MEAN_MOTION":13.73228128,"ECCENTRICITY":0.00317479,"INCLINATION":82.93,"RA_OF_ASC_NODE":276.1863,"ARG_OF_PERICENTER":12.8214,"MEAN_ANOMALY":46.5936,"EPHEMERIS_TYPE":0,"CLASSIFICATION_TYPE":"U","NORAD_CAT_ID":25590,"ELEMENT_SET_NO":999,"REV_AT_EPOCH":36371,"BSTAR":6.9091919e-5,"MEAN_MOTION_DOT":7.9e-7,"MEAN_MOTION_DDOT":0},{"OBJECT_NAME":"COSMOS 2378","OBJECT_ID":"2001-023A","EPOCH":"2026-03-14T15:04:55.627104","MEAN_MOTION":13.74151598,"ECCENTRICITY":0.0032053,"INCLINATION":82.9243,"RA_OF_ASC_NODE":291.6053,"ARG_OF_PERICENTER":312.8877,"MEAN_ANOMALY":101.1585,"EPHEMERIS_TYPE":0,"CLASSIFICATION_TYPE":"U","NORAD_CAT_ID":26818,"ELEMENT_SET_NO":999,"REV_AT_EPOCH":24185,"BSTAR":6.1938216e-5,"MEAN_MOTION_DOT":7.3e-7,"MEAN_MOTION_DDOT":0},{"OBJECT_NAME":"COSMOS 2389","OBJECT_ID":"2002-026A","EPOCH":"2026-03-14T12:28:47.529120","MEAN_MOTION":13.75164926,"ECCENTRICITY":0.0046787,"INCLINATION":82.9479,"RA_OF_ASC_NODE":239.0381,"ARG_OF_PERICENTER":162.3438,"MEAN_ANOMALY":256.8187,"EPHEMERIS_TYPE":0,"CLASSIFICATION_TYPE":"U","NORAD_CAT_ID":27436,"ELEMENT_SET_NO":999,"REV_AT_EPOCH":19410,"BSTAR":5.1051702e-5,"MEAN_MOTION_DOT":6.5e-7,"MEAN_MOTION_DDOT":0},{"OBJECT_NAME":"COSMOS 2398","OBJECT_ID":"2003-023A","EPOCH":"2026-03-14T10:09:10.122912","MEAN_MOTION":13.72395927,"ECCENTRICITY":0.00307132,"INCLINATION":82.9504,"RA_OF_ASC_NODE":205.1313,"ARG_OF_PERICENTER":216.2013,"MEAN_ANOMALY":203.1617,"EPHEMERIS_TYPE":0,"CLASSIFICATION_TYPE":"U","NORAD_CAT_ID":27818,"ELEMENT_SET_NO":999,"REV_AT_EPOCH":14074,"BSTAR":5.1502049e-5,"MEAN_MOTION_DOT":6.2e-7,"MEAN_MOTION_DDOT":0},{"OBJECT_NAME":"COSMOS 2407","OBJECT_ID":"2004-028A","EPOCH":"2026-03-14T15:35:30.490944","MEAN_MOTION":13.76325693,"ECCENTRICITY":0.0039959,"INCLINATION":82.9625,"RA_OF_ASC_NODE":144.8546,"ARG_OF_PERICENTER":155.0458,"MEAN_ANOMALY":357.1575,"EPHEMERIS_TYPE":0,"CLASSIFICATION_TYPE":"U","NORAD_CAT_ID":28380,"ELEMENT_SET_NO":999,"REV_AT_EPOCH":8687,"BSTAR":5.8504619e-5,"MEAN_MOTION_DOT":7.3e-7,"MEAN_MOTION_DDOT":0},{"OBJECT_NAME":"COSMOS 2414","OBJECT_ID":"2005-002A","EPOCH":"2026-03-14T14:13:07.996224","MEAN_MOTION":13.87916424,"ECCENTRICITY":0.00388784,"INCLINATION":82.9471,"RA_OF_ASC_NODE":115.209,"ARG_OF_PERICENTER":237.9612,"MEAN_ANOMALY":121.7773,"EPHEMERIS_TYPE":0,"CLASSIFICATION_TYPE":"U","NORAD_CAT_ID":28521,"ELEMENT_SET_NO":999,"REV_AT_EPOCH":7069,"BSTAR":8.0031811e-5,"MEAN_MOTION_DOT":1.11e-6,"MEAN_MOTION_DDOT":0},{"OBJECT_NAME":"COSMOS 2429","OBJECT_ID":"2007-038A","EPOCH":"2026-03-14T14:47:47.112000","MEAN_MOTION":13.75158792,"ECCENTRICITY":0.0039263,"INCLINATION":82.9764,"RA_OF_ASC_NODE":275.588,"ARG_OF_PERICENTER":138.112,"MEAN_ANOMALY":222.3052,"EPHEMERIS_TYPE":0,"CLASSIFICATION_TYPE":"U","NORAD_CAT_ID":32052,"ELEMENT_SET_NO":999,"REV_AT_EPOCH":92865,"BSTAR":7.0570934e-5,"MEAN_MOTION_DOT":8.3e-7,"MEAN_MOTION_DDOT":0},{"OBJECT_NAME":"COSMOS 2454","OBJECT_ID":"2009-039A","EPOCH":"2026-03-14T14:49:19.267104","MEAN_MOTION":13.89941889,"ECCENTRICITY":0.00195271,"INCLINATION":82.952,"RA_OF_ASC_NODE":98.9939,"ARG_OF_PERICENTER":165.4764,"MEAN_ANOMALY":319.1666,"EPHEMERIS_TYPE":0,"CLASSIFICATION_TYPE":"U","NORAD_CAT_ID":35635,"ELEMENT_SET_NO":999,"REV_AT_EPOCH":84426,"BSTAR":6.4066203e-5,"MEAN_MOTION_DOT":9.5e-7,"MEAN_MOTION_DDOT":0},{"OBJECT_NAME":"COSMOS 2463","OBJECT_ID":"2010-017A","EPOCH":"2026-03-14T15:31:04.166400","MEAN_MOTION":13.7165852,"ECCENTRICITY":0.00369626,"INCLINATION":82.9623,"RA_OF_ASC_NODE":319.1905,"ARG_OF_PERICENTER":34.1504,"MEAN_ANOMALY":354.8993,"EPHEMERIS_TYPE":0,"CLASSIFICATION_TYPE":"U","NORAD_CAT_ID":36519,"ELEMENT_SET_NO":999,"REV_AT_EPOCH":79497,"BSTAR":5.8629897e-5,"MEAN_MOTION_DOT":6.8e-7,"MEAN_MOTION_DDOT":0}]
