COSMOS 2361             
1 25590U 98076A   26073.56026076  .00000079  00000+0  69092-4 0  9996
2 25590  82.9300 276.1863 0031747  12.8214  46.5936 13.73228128363718
COSMOS 2378             
1 26818U 01023A   26073.62842161  .00000073  00000+0  61938-4 0  9999
2 26818  82.9243 291.6053 0032053 312.8877 101.1585 13.74151598241855
COSMOS 2389             
1 27436U 02026A   26073.51999455  .00000065  00000+0  51052-4 0  9994
2 27436  82.9479 239.0381 0046787 162.3438 256.8187 13.75164926194104
COSMOS 2398             
1 27818U 03023A   26073.42303383  .00000062  00000+0  51502-4 0  9992
2 27818  82.9504 205.1313 0030713 216.2013 203.1617 13.72395927140744
COSMOS 2407             
1 28380U 04028A   26073.64965846  .00000073  00000+0  58505-4 0  9997
2 28380  82.9625 144.8546 0039959 155.0458 357.1575 13.76325693 86877
COSMOS 2414             
1 28521U 05002A   26073.59245366  .00000111  00000+0  80032-4 0  9992
2 28521  82.9471 115.2090 0038878 237.9612 121.7773 13.87916424 70698
COSMOS 2429             
1 32052U 07038A   26073.61651750  .00000083  00000+0  70571-4 0  9993
2 32052  82.9764 275.5880 0039263 138.1120 222.3052 13.75158792928658
COSMOS 2454             
1 35635U 09039A   26073.61758411  .00000095  00000+0  64066-4 0  9993
2 35635  82.9520  98.9939 0019527 165.4764 319.1666 13.89941889844260
COSMOS 2463             
1 36519U 10017A   26073.64657600  .00000068  00000+0  58630-4 0  9994
2 36519  82.9623 319.1905 0036962  34.1504 354.8993 13.71658520794972
